OSCAR 7 (AO-7)          
1 07530U 74089B   22103.87244313 -.00000031  00000+0  89835-4 0  9994
2 07530 101.9001  83.5507 0012290 164.0269 309.5747 12.53654157169379
PHASE 3B (AO-10)        
1 14129U 83058B   22104.16157030  .00000183  00000+0  00000+0 0  9993
2 14129  26.4111 106.7210 5988349  64.8926 344.7019  2.05867338264093
UOSAT 2 (UO-11)         
1 14781U 84021B   22103.83967482  .00000877  00000+0  11257-3 0  9991
2 14781  97.6150  94.2356 0008723 163.8087 196.3408 14.83546462 30460
LUSAT (LO-19)           
1 20442U 90005G   22103.86585030  .00000127  00000+0  63109-4 0  9991
2 20442  98.7875  67.7643 0011827   4.2013 355.9267 14.33040831683854
EYESAT A (AO-27)        
1 22825U 93061C   22104.07998298  .00000077  00000+0  47678-4 0  9998
2 22825  98.8943 133.7348 0007554 235.0050 125.0423 14.30157590489224
ITAMSAT (IO-26)         
1 22826U 93061D   22103.83891160  .00000091  00000+0  52905-4 0  9997
2 22826  98.8886 133.3720 0008248 221.4174 138.6384 14.30501012489170
RADIO ROSTO (RS-15)     
1 23439U 94085A   22103.91919577 -.00000037  00000+0  15882-3 0  9990
2 23439  64.8117 249.9908 0167130 283.5865  74.6492 11.27571291124214
JAS-2 (FO-29)           
1 24278U 96046B   22103.80792104 -.00000007  00000+0  25937-4 0  9994
2 24278  98.5239 136.3670 0351357  91.0407 273.1001 13.53113104266866
TECHSAT 1B (GO-32)      
1 25397U 98043D   22104.12562792  .00000050  00000+0  41659-4 0  9996
2 25397  98.8116  54.4458 0000596 353.5312   6.5859 14.23743342234491
ISS (ZARYA)             
1 25544U 98067A   22104.17524737  .00008204  00000+0  15128-3 0  9998
2 25544  51.6467 293.6346 0005173  19.1633  92.7442 15.50052344335258
PCSAT (NO-44)           
1 26931U 01043C   22103.71820342  .00000086  00000+0  64564-4 0  9996
2 26931  67.0512 225.4848 0007830 272.8006  87.2199 14.30682621 72143
SAUDISAT 1C (SO-50)     
1 27607U 02058C   22104.16143190  .00000646  00000+0  11004-3 0  9995
2 27607  64.5533 138.6269 0074489 307.1520  52.2794 14.76003506 39097
CUTE-1 (CO-55)          
1 27844U 03031E   22103.57138716  .00000264  00000+0  13817-3 0  9992
2 27844  98.6812 112.2324 0008722 292.7871  67.2386 14.22413050974645
CUBESAT XI-IV (CO-57)   
1 27848U 03031J   22103.58464904  .00000221  00000+0  11984-3 0  9994
2 27848  98.6859 112.7774 0008739 308.5457  51.4937 14.21975260974460
MOZHAYETS 4 (RS-22)     
1 27939U 03042A   22104.02378886  .00000852  00000+0  15978-3 0  9997
2 27939  98.1799 244.8014 0013789  55.7297 304.5186 14.67241275991590
CUBESAT XI-V            
1 28895U 05043F   22103.80665029  .00000918  00000+0  18307-3 0  9997
2 28895  98.0955 236.2252 0016232 349.2167  10.8686 14.64201855877959
FALCONSAT-3             
1 30776U 07006E   22103.89820130  .00028851  00000+0  52245-3 0  9999
2 30776  35.4329 321.7210 0001238 318.8594  41.2043 15.48677043839558
CUTE-1.7+APD II (CO-65) 
1 32785U 08021C   22103.73591553  .00002438  00000+0  26248-3 0  9993
2 32785  97.6513  76.6706 0014532  88.8779 271.4104 14.89294039756851
DELFI-C3 (DO-64)        
1 32789U 08021G   22103.79996588  .00010193  00000+0  59547-3 0  9995
2 32789  97.3464 132.4949 0011425 177.1415 182.9883 15.12032433762159
SEEDS II (CO-66)        
1 32791U 08021J   22104.21447849  .00003275  00000+0  32590-3 0  9999
2 32791  97.6064  82.7006 0014248  50.1816 310.0655 14.92239193757696
YUBILEINY (RS-30)       
1 32953U 08025A   22104.07311800  .00000021  00000+0  80971-4 0  9997
2 32953  82.5043 223.9520 0019738  44.5049 315.7615 12.43108653630339
KKS-1 (KISEKI)          
1 33499U 09002H   22104.17789074  .00000703  00000+0  11006-3 0  9991
2 33499  98.2274 345.1305 0009510 153.1019 207.0685 14.75899532711198
SWISSCUBE               
1 35932U 09051B   22103.81413530  .00000658  00000+0  15799-3 0  9992
2 35932  98.5773 317.9230 0006423 242.7973 117.2570 14.56762534666685
BEESAT-1                
1 35933U 09051C   22103.83886383  .00000565  00000+0  13712-3 0  9995
2 35933  98.5717 319.6201 0004541 257.2185 102.8504 14.56791869666844
ITUPSAT1                
1 35935U 09051E   22103.88567173  .00000512  00000+0  12762-3 0  9991
2 35935  98.5819 319.7405 0006854 260.7382  99.3039 14.55908680666486
XIWANG-1 (HOPE-1)       
1 36122U 09072B   22103.89634641 -.00000031  00000+0  32035-4 0  9992
2 36122 100.1771  77.6437 0008029 126.6436 233.5417 13.16367585592314
JUGNU                   
1 37839U 11058B   22104.01418826  .00000440  00000+0  92251-4 0  9994
2 37839  19.9600 206.3151 0018810 165.7693 354.0658 14.12766549543121
SRMSAT                  
1 37841U 11058D   22103.82021291  .00000406  00000+0  78184-4 0  9992
2 37841  19.9723 285.6008 0011923 354.1283  35.0208 14.10739549542100
M-CUBED & EXP-1 PRIME   
1 37855U 11061F   22103.82871752  .00007926  00000+0  36272-3 0  9991
2 37855 101.7047 188.8841 0158579 255.6584 102.6980 15.10515363571478
STRAND-1                
1 39090U 13009E   22103.81477510  .00000102  00000+0  50368-4 0  9993
2 39090  98.4097 303.6223 0010312 102.4308 257.8032 14.35268227478123
SOMP                    
1 39134U 13015E   22103.88031499  .00013490  00000+0  51418-3 0  9998
2 39134  64.8613 273.5049 0032674 290.4042  69.3580 15.26464798496993
BEESAT-3                
1 39135U 13015F   22103.84990734  .00008712  00000+0  37825-3 0  9998
2 39135  64.8666 308.1988 0034311 298.5833  61.1844 15.22360297496275
BEESAT-2                
1 39136U 13015G   22103.85872780  .00008638  00000+0  39013-3 0  9998
2 39136  64.8756 315.9489 0011849 289.0212  70.9632 15.21476684496084
ZACUBE-1 (TSHEPISOSAT)  
1 39417U 13066B   22103.89675058  .00001680  00000+0  21223-3 0  9993
2 39417  97.6305  78.3433 0056381 255.9359 103.5584 14.82078892453563
GOMX-1                  
1 39430U 13066Q   22104.03634826  .00001429  00000+0  26460-3 0  9992
2 39430  97.8122  14.9104 0148160 247.9015 110.6396 14.60017354446895
CUBEBUG-2 (LO-74)       
1 39440U 13066AA  22103.88914945  .00002136  00000+0  29678-3 0  9998
2 39440  97.7196  64.1946 0078638 342.1831  17.6625 14.76770342450754
FUNCUBE-1 (AO-73)       
1 39444U 13066AE  22103.89176959  .00002125  00000+0  26041-3 0  9997
2 39444  97.6189  80.7372 0055391 244.2603 115.2887 14.83101207451950
UWE-3                   
1 39446U 13066AG  22104.15737929  .00001742  00000+0  23215-3 0  9993
2 39446  97.6789  71.0346 0067499 299.7394  59.7113 14.79328260451540
SPROUT                  
1 39770U 14029E   22104.20325777  .00007289  00000+0  75992-3 0  9994
2 39770  97.9320 220.8167 0007530 301.6974  58.3423 14.90057227428094
UNISAT-6                
1 40012U 14033C   22103.79407920  .00001223  00000+0  18548-3 0  9990
2 40012  97.6638 295.2139 0057888   9.8784 350.3549 14.74715444420456
DUCHIFAT-1              
1 40021U 14033M   22103.85043697  .00003336  00000+0  33162-3 0  9990
2 40021  98.0062  52.9276 0011020 251.9932 108.0086 14.92353528425062
QB50P1                  
1 40025U 14033R   22103.80239527  .00002024  00000+0  21497-3 0  9999
2 40025  97.9563  40.7329 0010607 270.5395  89.4607 14.90143439424138
NUDT-PHONESAT           
1 40900U 15049B   22104.26933075  .00027176  00000+0  86657-3 0  9993
2 40900  97.4076 122.0545 0012281 146.4451 270.2666 15.32420496364778
ZDPS 2A                 
1 40901U 15049C   22104.07260568  .00012723  00000+0  55118-3 0  9993
2 40901  97.4628 113.2534 0011469 201.3020 243.2265 15.22471778363651
ZDPS 2B                 
1 40902U 15049D   22104.28884856  .00012966  00000+0  55939-3 0  9999
2 40902  97.4693 111.0518 0011370 198.2565 172.5320 15.22608579363669
XW-2A                   
1 40903U 15049E   22104.11370363  .00021959  00000+0  38373-3 0  9990
2 40903  97.1895 162.6548 0010225   5.2084  49.9219 15.50617129369287
KAITUO 1A               
1 40904U 15049F   22104.08440169  .00004482  00000+0  22771-3 0  9996
2 40904  97.4964 107.2425 0012483 229.8007 217.2512 15.17331853363105
2015-049G               
1 40905U 15049G   22104.09987671  .00004174  00000+0  22032-3 0  9990
2 40905  97.5147 104.4125 0013748 232.1825 200.2271 15.16010147362861
XW-2C                   
1 40906U 15049H   22104.09020339  .00006415  00000+0  31547-3 0  9991
2 40906  97.4947 108.0512 0012793 217.0159 216.6214 15.18297134363156
XW-2D                   
1 40907U 15049J   22104.26735132  .00007418  00000+0  35875-3 0  9997
2 40907  97.4940 108.1598 0012223 210.2242 207.2222 15.18834410363228
LILACSAT-2              
1 40908U 15049K   22104.24382208  .00003932  00000+0  21161-3 0  9998
2 40908  97.5173 105.4846 0013922 235.1188 179.9662 15.15352403362761
XW-2E                   
1 40909U 15049L   22104.26771041  .00011075  00000+0  48456-3 0  9991
2 40909  97.4680 112.5612 0012094 189.5731 228.5582 15.22162318363641
XW-2F                   
1 40910U 15049M   22104.11039296  .00011074  00000+0  49176-3 0  9995
2 40910  97.4759 111.5240 0013087 192.9859 240.0820 15.21644656363393
XW-2B                   
1 40911U 15049N   22104.28774485  .00007193  00000+0  34901-3 0  9997
2 40911  97.4925 108.8008 0012173 212.9251 203.4653 15.18731854363114
KAITUO 1B               
1 40912U 15049P   22104.29459544  .00012566  00000+0  51184-3 0  9997
2 40912  97.4406 116.0642 0013951 159.9634 210.1793 15.24530001363976
TIANWANG 1A (TW-1A)     
1 40928U 15051D   22104.28261962  .00036752  00000+0  55689-3 0  9998
2 40928  97.0472 127.7138 0006233 249.1266 169.0065 15.54536005368252
LAPAN-A2                
1 40931U 15052B   22103.61753746  .00001058  00000+0  57946-4 0  9995
2 40931   6.0004 271.5735 0014083 330.3771  29.5830 14.76770380353741
E-ST@R-II               
1 41459U 16025D   22104.06588816  .00019376  00000+0  86032-3 0  9995
2 41459  98.1777 264.5475 0150280 127.8238 233.6505 15.11930806327767
AAUSAT 4                
1 41460U 16025E   22104.21802150  .00028116  00000+0  11332-2 0  9996
2 41460  98.1734 270.3620 0132067 105.5457 256.0285 15.17042943328192
